{
  "type": "FeatureCollection",
  "name": "example_aoi",
  "crs": { "type": "name", "properties": { "name": "urn:ogc:def:crs:OGC:1.3:CRS84" } },
  "features": [{
    "type": "Feature",
    "properties": { "name": "Workshop example area",
                    "note": "fictional AOI in the Hudson Bay Lowlands; all cores in example_soil_cores.csv are fictional" },
    "geometry": { "type": "Polygon", "coordinates": [[
      [-86.62, 55.26], [-86.45, 55.24], [-86.30, 55.27],
      [-86.30, 55.44], [-86.50, 55.46], [-86.62, 55.42],
      [-86.62, 55.26]
    ]] }
  }]
}
